{"type": "FeatureCollection", "features": [ {"type": "Feature", "properties": {"norad_id": 30110, "name": "FENGYUN 1C DEB", "group": "fengyun-1c-debris", "lat": -10.166479097594225, "lon": -75.99055044956273, "alt_km": 1189.0757090742081, "timestamp": "2025-12-23T20:42:37.349743+00:00", "meta": {"OBJECT_NAME": "FENGYUN 1C DEB", "OBJECT_ID": "1999-025RP", "EPOCH": "2025-12-23T05:35:31.111008", "MEAN_MOTION": 13.56229264, "ECCENTRICITY": 0.0267237, "INCLINATION": 98.9076, "RA_OF_ASC_NODE": 105.0507, "ARG_OF_PERICENTER": 325.9898, "MEAN_ANOMALY": 32.436, "EPHEMERIS_TYPE": 0, "CLASSIFICATION_TYPE": "U", "NORAD_CAT_ID": 30110, "ELEMENT_SET_NO": 999, "REV_AT_EPOCH": 93657, "BSTAR": 0.00027683423, "MEAN_MOTION_DOT": 2.05e-06, "MEAN_MOTION_DDOT": 0}, "tle": {"line1": "1 30110U 99025RP  25357.23299897  .00000205  00000+0  27683-3 0  9996", "line2": "2 30110  98.9076 105.0507 0267237 325.9898  32.4360 13.56229264936573"}}, "geometry": {"type": "Point", "coordinates": [-75.99055044956273, -10.166479097594225]}}, {"type": "Feature", "properties": {"norad_id": 30112, "name": "FENGYUN 1C DEB", "group": "fengyun-1c-debris", "lat": 34.3996368975613, "lon": 158.82849034705004, "alt_km": 760.492381873114, "timestamp": "2025-12-23T20:42:37.349754+00:00", "meta": {"OBJECT_NAME": "FENGYUN 1C DEB", "OBJECT_ID": "1999-025RR", "EPOCH": "2025-12-23T04:51:21.488256", "MEAN_MOTION": 14.22252057, "ECCENTRICITY": 0.02018646, "INCLINATION": 99.2827, "RA_OF_ASC_NODE": 331.7032, "ARG_OF_PERICENTER": 78.01, "MEAN_ANOMALY": 284.3624, "EPHEMERIS_TYPE": 0, "CLASSIFICATION_TYPE": "U", "NORAD_CAT_ID": 30112, "ELEMENT_SET_NO": 999, "REV_AT_EPOCH": 97731, "BSTAR": 0.00054780143, "MEAN_MOTION_DOT": 1.447e-05, "MEAN_MOTION_DDOT": 0}, "tle": {"line1": "1 30112U 99025RR  25357.20233204  .00001447  00000+0  54780-3 0  9992", "line2": "2 30112  99.2827 331.7032 0201864  78.0100 284.3624 14.22252057977318"}}, "geometry": {"type": "Point", "coordinates": [158.82849034705004, 34.3996368975613]}}, {"type": "Feature", "properties": {"norad_id": 30113, "name": "FENGYUN 1C DEB", "group": "fengyun-1c-debris", "lat": -47.096994193018546, "lon": 20.89942392050337, "alt_km": 753.1333125895071, "timestamp": "2025-12-23T20:42:37.349765+00:00", "meta": {"OBJECT_NAME": "FENGYUN 1C DEB", "OBJECT_ID": "1999-025RS", "EPOCH": "2025-12-22T12:24:49.286304", "MEAN_MOTION": 14.4544519, "ECCENTRICITY": 0.00405026, "INCLINATION": 99.037, "RA_OF_ASC_NODE": 209.3281, "ARG_OF_PERICENTER": 333.7695, "MEAN_ANOMALY": 95.9669, "EPHEMERIS_TYPE": 0, "CLASSIFICATION_TYPE": "U", "NORAD_CAT_ID": 30113, "ELEMENT_SET_NO": 999, "REV_AT_EPOCH": 98050, "BSTAR": 0.0020865947, "MEAN_MOTION_DOT": 7.379e-05, "MEAN_MOTION_DDOT": 0}, "tle": {"line1": "1 30113U 99025RS  25356.51723711  .00007379  00000+0  20866-2 0  9990", "line2": "2 30113  99.0370 209.3281 0040502 333.7695  95.9669 14.45445190980503"}}, "geometry": {"type": "Point", "coordinates": [20.89942392050337, -47.096994193018546]}}, {"type": "Feature", "properties": {"norad_id": 30114, "name": "FENGYUN 1C DEB", "group": "fengyun-1c-debris", "lat": 25.12845874961191, "lon": -4.2319431309779585, "alt_km": 832.3551690167205, "timestamp": "2025-12-23T20:42:37.349775+00:00", "meta": {"OBJECT_NAME": "FENGYUN 1C DEB", "OBJECT_ID": "1999-025RT", "EPOCH": "2025-12-22T22:44:04.769088", "MEAN_MOTION": 14.09659369, "ECCENTRICITY": 0.0082351, "INCLINATION": 98.7469, "RA_OF_ASC_NODE": 359.0194, "ARG_OF_PERICENTER": 91.2463, "MEAN_ANOMALY": 330.9877, "EPHEMERIS_TYPE": 0, "CLASSIFICATION_TYPE": "U", "NORAD_CAT_ID": 30114, "ELEMENT_SET_NO": 999, "REV_AT_EPOCH": 97298, "BSTAR": 0.0002267, "MEAN_MOTION_DOT": 3.68e-06, "MEAN_MOTION_DDOT": 0}, "tle": {"line1": "1 30114U 99025RT  25356.94727742  .00000368  00000+0  22670-3 0  9993", "line2": "2 30114  98.7469 359.0194 0082351  91.2463 330.9877 14.09659369972983"}}, "geometry": {"type": "Point", "coordinates": [-4.2319431309779585, 25.12845874961191]}}, {"type": "Feature", "properties": {"norad_id": 30115, "name": "FENGYUN 1C DEB", "group": "fengyun-1c-debris", "lat": 36.348532067025275, "lon": -148.7299578538932, "alt_km": 843.1530205436966, "timestamp": "2025-12-23T20:42:37.349786+00:00", "meta": {"OBJECT_NAME": "FENGYUN 1C DEB", "OBJECT_ID": "1999-025RU", "EPOCH": "2025-12-23T01:41:35.784384", "MEAN_MOTION": 14.19816914, "ECCENTRICITY": 0.00673226, "INCLINATION": 98.6216, "RA_OF_ASC_NODE": 24.0881, "ARG_OF_PERICENTER": 30.95, "MEAN_ANOMALY": 23.5885, "EPHEMERIS_TYPE": 0, "CLASSIFICATION_TYPE": "U", "NORAD_CAT_ID": 30115, "ELEMENT_SET_NO": 999, "REV_AT_EPOCH": 97475, "BSTAR": 0.00087016205, "MEAN_MOTION_DOT": 1.844e-05, "MEAN_MOTION_DDOT": 0}, "tle": {"line1": "1 30115U 99025RU  25357.07055306  .00001844  00000+0  87016-3 0  9994", "line2": "2 30115  98.6216  24.0881 0067322  30.9500  23.5885 14.19816914974751"}}, "geometry": {"type": "Point", "coordinates": [-148.7299578538932, 36.348532067025275]}}, {"type": "Feature", "properties": {"norad_id": 30116, "name": "FENGYUN 1C DEB", "group": "fengyun-1c-debris", "lat": 80.5082554873478, "lon": -12.325611166085755, "alt_km": 797.8748836615468, "timestamp": "2025-12-23T20:42:37.349796+00:00", "meta": {"OBJECT_NAME": "FENGYUN 1C DEB", "OBJECT_ID": "1999-025RV", "EPOCH": "2025-12-22T16:27:55.890720", "MEAN_MOTION": 14.29344968, "ECCENTRICITY": 0.00207495, "INCLINATION": 99.397, "RA_OF_ASC_NODE": 68.4909, "ARG_OF_PERICENTER": 311.7848, "MEAN_ANOMALY": 204.3729, "EPHEMERIS_TYPE": 0, "CLASSIFICATION_TYPE": "U", "NORAD_CAT_ID": 30116, "ELEMENT_SET_NO": 999, "REV_AT_EPOCH": 97651, "BSTAR": 0.0012754315, "MEAN_MOTION_DOT": 3.206e-05, "MEAN_MOTION_DDOT": 0}, "tle": {"line1": "1 30116U 99025RV  25356.68606355  .00003206  00000+0  12754-2 0  9997", "line2": "2 30116  99.3970  68.4909 0020749 311.7848 204.3729 14.29344968976515"}}, "geometry": {"type": "Point", "coordinates": [-12.325611166085755, 80.5082554873478]}}, {"type": "Feature", "properties": {"norad_id": 30117, "name": "FENGYUN 1C DEB", "group": "fengyun-1c-debris", "lat": -22.786208398740623, "lon": 162.29528446903763, "alt_km": 766.3662584263902, "timestamp": "2025-12-23T20:42:37.349807+00:00", "meta": {"OBJECT_NAME": "FENGYUN 1C DEB", "OBJECT_ID": "1999-025RW", "EPOCH": "2025-12-22T21:51:25.681824", "MEAN_MOTION": 14.07168812, "ECCENTRICITY": 0.016414, "INCLINATION": 98.805, "RA_OF_ASC_NODE": 345.1006, "ARG_OF_PERICENTER": 180.4865, "MEAN_ANOMALY": 240.6063, "EPHEMERIS_TYPE": 0, "CLASSIFICATION_TYPE": "U", "NORAD_CAT_ID": 30117, "ELEMENT_SET_NO": 999, "REV_AT_EPOCH": 97132, "BSTAR": 0.00027015, "MEAN_MOTION_DOT": 4.69e-06, "MEAN_MOTION_DDOT": 0}, "tle": {"line1": "1 30117U 99025RW  25356.91071391  .00000469  00000+0  27015-3 0  9995", "line2": "2 30117  98.8050 345.1006 0164140 180.4865 240.6063 14.07168812971322"}}, "geometry": {"type": "Point", "coordinates": [162.29528446903763, -22.786208398740623]}}, {"type": "Feature", "properties": {"norad_id": 30118, "name": "FENGYUN 1C DEB", "group": "fengyun-1c-debris", "lat": -32.808226947704256, "lon": 175.540647388919, "alt_km": 943.6601933950196, "timestamp": "2025-12-23T20:42:37.349817+00:00", "meta": {"OBJECT_NAME": "FENGYUN 1C DEB", "OBJECT_ID": "1999-025RX", "EPOCH": "2025-12-22T13:31:35.457312", "MEAN_MOTION": 14.05124668, "ECCENTRICITY": 0.00850047, "INCLINATION": 98.803, "RA_OF_ASC_NODE": 0.0128, "ARG_OF_PERICENTER": 32.5084, "MEAN_ANOMALY": 91.7727, "EPHEMERIS_TYPE": 0, "CLASSIFICATION_TYPE": "U", "NORAD_CAT_ID": 30118, "ELEMENT_SET_NO": 999, "REV_AT_EPOCH": 97069, "BSTAR": 4.2548584e-05, "MEAN_MOTION_DOT": 2.8e-07, "MEAN_MOTION_DDOT": 0}, "tle": {"line1": "1 30118U 99025RX  25356.56360483  .00000028  00000+0  42549-4 0  9991", "line2": "2 30118  98.8030   0.0128 0085004  32.5084  91.7727 14.05124668970694"}}, "geometry": {"type": "Point", "coordinates": [175.540647388919, -32.808226947704256]}}, {"type": "Feature", "properties": {"norad_id": 30119, "name": "FENGYUN 1C DEB", "group": "fengyun-1c-debris", "lat": 63.780008878742066, "lon": -172.8647853571327, "alt_km": 887.8621525072922, "timestamp": "2025-12-23T20:42:37.349828+00:00", "meta": {"OBJECT_NAME": "FENGYUN 1C DEB", "OBJECT_ID": "1999-025RY", "EPOCH": "2025-12-21T11:22:48.689760", "MEAN_MOTION": 14.22293665, "ECCENTRICITY": 0.0130659, "INCLINATION": 97.9202, "RA_OF_ASC_NODE": 348.5683, "ARG_OF_PERICENTER": 266.9972, "MEAN_ANOMALY": 224.8562, "EPHEMERIS_TYPE": 0, "CLASSIFICATION_TYPE": "U", "NORAD_CAT_ID": 30119, "ELEMENT_SET_NO": 999, "REV_AT_EPOCH": 97304, "BSTAR": 0.0010592084, "MEAN_MOTION_DOT": 2.53e-05, "MEAN_MOTION_DDOT": 0}, "tle": {"line1": "1 30119U 99025RY  25355.47417465  .00002530  00000+0  10592-2 0  9995", "line2": "2 30119  97.9202 348.5683 0130659 266.9972 224.8562 14.22293665973049"}}, "geometry": {"type": "Point", "coordinates": [-172.8647853571327, 63.780008878742066]}}, {"type": "Feature", "properties": {"norad_id": 30120, "name": "FENGYUN 1C DEB", "group": "fengyun-1c-debris", "lat": -65.35231715187335, "lon": 99.7562651459872, "alt_km": 824.5042405000067, "timestamp": "2025-12-23T20:42:37.349839+00:00", "meta": {"OBJECT_NAME": "FENGYUN 1C DEB", "OBJECT_ID": "1999-025RZ", "EPOCH": "2025-12-23T04:31:08.308704", "MEAN_MOTION": 14.27692811, "ECCENTRICITY": 0.00639096, "INCLINATION": 98.8513, "RA_OF_ASC_NODE": 79.2203, "ARG_OF_PERICENTER": 181.8289, "MEAN_ANOMALY": 245.1425, "EPHEMERIS_TYPE": 0, "CLASSIFICATION_TYPE": "U", "NORAD_CAT_ID": 30120, "ELEMENT_SET_NO": 999, "REV_AT_EPOCH": 97520, "BSTAR": 0.0018903353, "MEAN_MOTION_DOT": 4.721e-05, "MEAN_MOTION_DDOT": 0}, "tle": {"line1": "1 30120U 99025RZ  25357.18829061  .00004721  00000+0  18903-2 0  9994", "line2": "2 30120  98.8513  79.2203 0063909 181.8289 245.1425 14.27692811975206"}}, "geometry": {"type": "Point", "coordinates": [99.7562651459872, -65.35231715187335]}}]}